[{"OBJECT_NAME":"STARLINK-36900","OBJECT_ID":"2026-038N","EPOCH":"2026-03-03T14:00:03.000384","MEAN_MOTION":16.07165185,"ECCENTRICITY":9.19e-5,"INCLINATION":97.2773,"RA_OF_ASC_NODE":72.361,"ARG_OF_PERICENTER":98.988,"MEAN_ANOMALY":150.1874,"EPHEMERIS_TYPE":0,"CLASSIFICATION_TYPE":"U","NORAD_CAT_ID":67973,"ELEMENT_SET_NO":999,"REV_AT_EPOCH":221,"BSTAR":-0.0012573,"MEAN_MOTION_DOT":-0.00971291,"MEAN_MOTION_DDOT":0.00033809},{"OBJECT_NAME":"STARLINK-36901","OBJECT_ID":"2026-038P","EPOCH":"2026-03-03T14:00:03.000384","MEAN_MOTION":16.07038956,"ECCENTRICITY":9.94e-5,"INCLINATION":97.2773,"RA_OF_ASC_NODE":72.3601,"ARG_OF_PERICENTER":92.9722,"MEAN_ANOMALY":154.4307,"EPHEMERIS_TYPE":0,"CLASSIFICATION_TYPE":"U","NORAD_CAT_ID":67974,"ELEMENT_SET_NO":999,"REV_AT_EPOCH":221,"BSTAR":-0.0012681,"MEAN_MOTION_DOT":-0.00972007,"MEAN_MOTION_DDOT":0.00033802},{"OBJECT_NAME":"STARLINK-36883","OBJECT_ID":"2026-038Q","EPOCH":"2026-03-03T14:00:03.000384","MEAN_MOTION":16.07653452,"ECCENTRICITY":9.23e-5,"INCLINATION":97.2769,"RA_OF_ASC_NODE":72.3639,"ARG_OF_PERICENTER":91.1282,"MEAN_ANOMALY":164.892,"EPHEMERIS_TYPE":0,"CLASSIFICATION_TYPE":"U","NORAD_CAT_ID":67975,"ELEMENT_SET_NO":999,"REV_AT_EPOCH":221,"BSTAR":-0.0012177,"MEAN_MOTION_DOT":-0.00969813,"MEAN_MOTION_DDOT":0.00033921},{"OBJECT_NAME":"STARLINK-36880","OBJECT_ID":"2026-038R","EPOCH":"2026-03-03T14:00:03.000384","MEAN_MOTION":16.07288058,"ECCENTRICITY":9.56e-5,"INCLINATION":97.2771,"RA_OF_ASC_NODE":72.3617,"ARG_OF_PERICENTER":89.0978,"MEAN_ANOMALY":161.8022,"EPHEMERIS_TYPE":0,"CLASSIFICATION_TYPE":"U","NORAD_CAT_ID":67976,"ELEMENT_SET_NO":999,"REV_AT_EPOCH":221,"BSTAR":-0.0012474,"MEAN_MOTION_DOT":-0.00971071,"MEAN_MOTION_DDOT":0.00033847},{"OBJECT_NAME":"STARLINK-36904","OBJECT_ID":"2026-038S","EPOCH":"2026-03-03T14:00:03.000384","MEAN_MOTION":16.0752732,"ECCENTRICITY":9.07e-5,"INCLINATION":97.2769,"RA_OF_ASC_NODE":72.363,"ARG_OF_PERICENTER":95.209,"MEAN_ANOMALY":159.1008,"EPHEMERIS_TYPE":0,"CLASSIFICATION_TYPE":"U","NORAD_CAT_ID":67977,"ELEMENT_SET_NO":999,"REV_AT_EPOCH":221,"BSTAR":-0.0012218,"MEAN_MOTION_DOT":-0.00965529,"MEAN_MOTION_DDOT":0.00033591},{"OBJECT_NAME":"STARLINK-36364","OBJECT_ID":"2026-038T","EPOCH":"2026-03-03T14:00:03.000384","MEAN_MOTION":16.07941421,"ECCENTRICITY":9.77e-5,"INCLINATION":97.2766,"RA_OF_ASC_NODE":72.3655,"ARG_OF_PERICENTER":87.7683,"MEAN_ANOMALY":172.2187,"EPHEMERIS_TYPE":0,"CLASSIFICATION_TYPE":"U","NORAD_CAT_ID":67978,"ELEMENT_SET_NO":999,"REV_AT_EPOCH":221,"BSTAR":-0.001189,"MEAN_MOTION_DOT":-0.00964335,"MEAN_MOTION_DDOT":0.0003369},{"OBJECT_NAME":"STARLINK-36359","OBJECT_ID":"2026-038U","EPOCH":"2026-03-03T14:00:03.000384","MEAN_MOTION":16.0738835,"ECCENTRICITY":8.9e-5,"INCLINATION":97.277,"RA_OF_ASC_NODE":72.362,"ARG_OF_PERICENTER":97.1337,"MEAN_ANOMALY":155.2302,"EPHEMERIS_TYPE":0,"CLASSIFICATION_TYPE":"U","NORAD_CAT_ID":67979,"ELEMENT_SET_NO":999,"REV_AT_EPOCH":221,"BSTAR":-0.0012377,"MEAN_MOTION_DOT":-0.00969587,"MEAN_MOTION_DDOT":0.00033794},{"OBJECT_NAME":"STARLINK-36882","OBJECT_ID":"2026-038V","EPOCH":"2026-03-03T14:00:03.000384","MEAN_MOTION":16.07809284,"ECCENTRICITY":9.3e-5,"INCLINATION":97.2767,"RA_OF_ASC_NODE":72.3646,"ARG_OF_PERICENTER":91.7912,"MEAN_ANOMALY":166.3032,"EPHEMERIS_TYPE":0,"CLASSIFICATION_TYPE":"U","NORAD_CAT_ID":67980,"ELEMENT_SET_NO":999,"REV_AT_EPOCH":221,"BSTAR":-0.0012089,"MEAN_MOTION_DOT":-0.00972237,"MEAN_MOTION_DDOT":0.00034145},{"OBJECT_NAME":"STARLINK-36874","OBJECT_ID":"2026-038W","EPOCH":"2026-03-03T14:00:03.000384","MEAN_MOTION":16.0803702,"ECCENTRICITY":9.35e-5,"INCLINATION":97.2766,"RA_OF_ASC_NODE":72.3662,"ARG_OF_PERICENTER":88.1957,"MEAN_ANOMALY":173.221,"EPHEMERIS_TYPE":0,"CLASSIFICATION_TYPE":"U","NORAD_CAT_ID":67981,"ELEMENT_SET_NO":999,"REV_AT_EPOCH":221,"BSTAR":-0.0011766,"MEAN_MOTION_DOT":-0.00960043,"MEAN_MOTION_DDOT":0.00033454},{"OBJECT_NAME":"STARLINK-36879","OBJECT_ID":"2026-038X","EPOCH":"2026-03-03T14:00:03.000384","MEAN_MOTION":16.08166341,"ECCENTRICITY":9.51e-5,"INCLINATION":97.2766,"RA_OF_ASC_NODE":72.3668,"ARG_OF_PERICENTER":90.9319,"MEAN_ANOMALY":172.1845,"EPHEMERIS_TYPE":0,"CLASSIFICATION_TYPE":"U","NORAD_CAT_ID":67982,"ELEMENT_SET_NO":999,"REV_AT_EPOCH":221,"BSTAR":-0.0011764,"MEAN_MOTION_DOT":-0.00967646,"MEAN_MOTION_DDOT":0.00034001},{"OBJECT_NAME":"STARLINK-36867","OBJECT_ID":"2026-038Y","EPOCH":"2026-03-03T14:00:03.000384","MEAN_MOTION":16.08404288,"ECCENTRICITY":0.0001015,"INCLINATION":97.2765,"RA_OF_ASC_NODE":72.3685,"ARG_OF_PERICENTER":75.252,"MEAN_ANOMALY":191.328,"EPHEMERIS_TYPE":0,"CLASSIFICATION_TYPE":"U","NORAD_CAT_ID":67983,"ELEMENT_SET_NO":999,"REV_AT_EPOCH":221,"BSTAR":-0.0011374,"MEAN_MOTION_DOT":-0.00949886,"MEAN_MOTION_DDOT":0.00032956},{"OBJECT_NAME":"STARLINK-36266","OBJECT_ID":"2026-038Z","EPOCH":"2026-03-03T14:00:03.000384","MEAN_MOTION":16.08305466,"ECCENTRICITY":9.87e-5,"INCLINATION":97.2765,"RA_OF_ASC_NODE":72.3678,"ARG_OF_PERICENTER":86.7577,"MEAN_ANOMALY":178.242,"EPHEMERIS_TYPE":0,"CLASSIFICATION_TYPE":"U","NORAD_CAT_ID":67984,"ELEMENT_SET_NO":999,"REV_AT_EPOCH":218,"BSTAR":-0.0011664,"MEAN_MOTION_DOT":-0.00967949,"MEAN_MOTION_DDOT":0.00034081},{"OBJECT_NAME":"STARLINK-36802","OBJECT_ID":"2026-038AA","EPOCH":"2026-03-03T14:00:03.000384","MEAN_MOTION":16.08493189,"ECCENTRICITY":0.0001439,"INCLINATION":97.2764,"RA_OF_ASC_NODE":72.3691,"ARG_OF_PERICENTER":95.7657,"MEAN_ANOMALY":172.2747,"EPHEMERIS_TYPE":0,"CLASSIFICATION_TYPE":"U","NORAD_CAT_ID":67985,"ELEMENT_SET_NO":999,"REV_AT_EPOCH":221,"BSTAR":-0.0011092,"MEAN_MOTION_DOT":-0.00931791,"MEAN_MOTION_DDOT":0.0003184},{"OBJECT_NAME":"STARLINK-36535","OBJECT_ID":"2026-039A","EPOCH":"2026-03-03T14:00:03.000384","MEAN_MOTION":16.01492659,"ECCENTRICITY":0.0001745,"INCLINATION":42.9991,"RA_OF_ASC_NODE":92.9731,"ARG_OF_PERICENTER":278.5695,"MEAN_ANOMALY":344.8084,"EPHEMERIS_TYPE":0,"CLASSIFICATION_TYPE":"U","NORAD_CAT_ID":67986,"ELEMENT_SET_NO":999,"REV_AT_EPOCH":189,"BSTAR":-0.0021112,"MEAN_MOTION_DOT":-0.01224918,"MEAN_MOTION_DDOT":0.00048269},{"OBJECT_NAME":"STARLINK-36744","OBJECT_ID":"2026-039B","EPOCH":"2026-03-03T14:00:03.000384","MEAN_MOTION":16.01576759,"ECCENTRICITY":0.0001729,"INCLINATION":42.999,"RA_OF_ASC_NODE":92.9709,"ARG_OF_PERICENTER":277.3159,"MEAN_ANOMALY":346.8529,"EPHEMERIS_TYPE":0,"CLASSIFICATION_TYPE":"U","NORAD_CAT_ID":67987,"ELEMENT_SET_NO":999,"REV_AT_EPOCH":189,"BSTAR":-0.0020928,"MEAN_MOTION_DOT":-0.01220295,"MEAN_MOTION_DDOT":0.00047981},{"OBJECT_NAME":"STARLINK-36734","OBJECT_ID":"2026-039C","EPOCH":"2026-03-03T14:00:03.000384","MEAN_MOTION":16.01717704,"ECCENTRICITY":0.0001748,"INCLINATION":42.999,"RA_OF_ASC_NODE":92.969,"ARG_OF_PERICENTER":277.6394,"MEAN_ANOMALY":347.3229,"EPHEMERIS_TYPE":0,"CLASSIFICATION_TYPE":"U","NORAD_CAT_ID":67988,"ELEMENT_SET_NO":999,"REV_AT_EPOCH":189,"BSTAR":-0.0020687,"MEAN_MOTION_DOT":-0.01216341,"MEAN_MOTION_DDOT":0.00047771}]
